APRIZESAT 2             
1 28366U 04025A   26159.16973255  .00000168  00000+0  65666-4 0  9994
2 28366  98.1008 325.6611 0104277 277.3959  81.5390 14.38032458150347
SAUDICOMSAT 1           
1 28369U 04025D   26159.28546607  .00000418  00000+0  10683-3 0  9993
2 28369  98.5772 169.1767 0033137  52.2508 308.1683 14.55466699162838
SAUDICOMSAT 2           
1 28370U 04025E   26159.29227594  .00000287  00000+0  85536-4 0  9991
2 28370  98.6642 171.2866 0054162 287.0157  72.5106 14.49976201158813
APRIZESAT 1             
1 28372U 04025G   26159.26596743  .00000213  00000+0  64462-4 0  9999
2 28372  98.6304 169.7487 0044542 180.7541 179.3593 14.51772631160619
NANOSAT-1               
1 28493U 04049B   26159.31330417  .00001085  00000+0  15025-3 0  9997
2 28493  98.2265 295.7580 0003307 339.3427  20.7650 14.80142322154131
SAUDICOMSAT 7           
1 31119U 07012C   26159.17218095  .00000518  00000+0  10190-3 0  9998
2 31119  98.3774 133.1196 0054731 223.7930 135.8926 14.66101764 21110
SAUDICOMSAT 6           
1 31121U 07012E   26159.12811239  .00000765  00000+0  15553-3 0  9997
2 31121  98.4094 126.4764 0071724 356.1140   3.9495 14.62547488 18867
SAUDICOMSAT 5           
1 31124U 07012H   26159.15818604  .00000648  00000+0  12001-3 0  9991
2 31124  98.3485 133.8545 0047960 152.5912 207.7837 14.68146172 22277
SAUDICOMSAT 3           
1 31125U 07012J   26158.18193285  .00000885  00000+0  15228-3 0  9992
2 31125  98.3138 133.4079 0040509  83.8456 276.7362 14.70688991 23354
SAUDICOMSAT 4           
1 31127U 07012L   26158.79442881  .00000614  00000+0  12266-3 0  9999
2 31127  98.3978 131.1735 0062120 288.2029  71.2417 14.64503017 19916
APRIZESAT 4             
1 35684U 09041D   26159.15375160  .00000697  00000+0  89716-4 0  9997
2 35684  98.1412 234.2942 0043044 352.7700   7.2888 14.83867536910024
APRIZESAT 3             
1 35686U 09041F   26159.00387989  .00001495  00000+0  13325-3 0  9994
2 35686  98.2054 311.7891 0062765  97.2528 263.5833 14.96215729915008
S-NET D                 
1 43186U 18014G   26159.22505095  .00004960  00000+0  25717-3 0  9990
2 43186  97.5366  64.0715 0009659  57.2163 302.9999 15.16587158457404
S-NET B                 
1 43187U 18014H   26158.97240562  .00005447  00000+0  28230-3 0  9991
2 43187  97.5372  63.8067 0010253  53.5740 306.6437 15.16556524457367
S-NET A                 
1 43188U 18014J   26158.69614311  .00006167  00000+0  31878-3 0  9990
2 43188  97.5380  63.7393 0010161  54.8789 305.3395 15.16591754457322
S-NET C                 
1 43189U 18014K   26159.24015877  .00004423  00000+0  22988-3 0  9990
2 43189  97.5397  64.3535 0011333  46.2402 313.9767 15.16549350455955
SALSAT                  
1 46495U 20068K   26158.98778249  .00008175  00000+0  28698-3 0  9996
2 46495  97.8853 161.4934 0008911 345.1768  14.9208 15.29667638313959
OOV-CUBE (TUBSAT-30)    
1 60240U 24128F   26159.00606001  .00002948  00000+0  23033-3 0  9991
2 60240  61.9951 257.5861 0045782 131.6813 228.8211 15.02735598104732
LPNTSAT-001 (IOD-1)     
1 68408U 26065A   26159.11494435  .00003202  00000+0  15797-3 0  9997
2 68408  97.4030  39.8162 0017570  40.9414 319.3136 15.18490907 10889
